{
  "type": "FeatureCollection",
  "features": [
    {
      "type": "Feature",
      "properties": {
        "norad_id": 58647,
        "name": "TIANMU-1 13",
        "group": "weather",
        "lat": 2.7076922843945117,
        "lon": -163.25101719527242,
        "alt_km": 491.4760029535846,
        "timestamp": "2025-12-22T22:44:20.594346+00:00",
        "meta_object_name": "TIANMU-1 13",
        "meta_object_id": "2023-205C",
        "meta_epoch": "2025-12-22T14:05:17.867040",
        "meta_mean_motion": 15.24640294,
        "meta_eccentricity": 0.00064469,
        "meta_inclination": 97.3609,
        "meta_ra_of_asc_node": 16.0445,
        "meta_arg_of_pericenter": 223.7859,
        "meta_mean_anomaly": 136.2869,
        "meta_ephemeris_type": 0,
        "meta_classification_type": "U",
        "meta_norad_cat_id": 58647,
        "meta_element_set_no": 999,
        "meta_rev_at_epoch": 11057,
        "meta_bstar": 0.00025984017,
        "meta_mean_motion_dot": 6.347e-05,
        "meta_mean_motion_ddot": 0,
        "tle_line1": "1 58647U 23205C   25356.58701235  .00006347  00000+0  25984-3 0  9994",
        "tle_line2": "2 58647  97.3609  16.0445 0006446 223.7859 136.2869 15.24640294110578"
      },
      "geometry": {
        "type": "Point",
        "coordinates": [
          -163.25101719527242,
          2.7076922843945117
        ]
      }
    },
    {
      "type": "Feature",
      "properties": {
        "norad_id": 58648,
        "name": "TIANMU-1 14",
        "group": "weather",
        "lat": -82.28722142317594,
        "lon": 123.25340645127893,
        "alt_km": 495.4544645475571,
        "timestamp": "2025-12-22T22:44:20.594356+00:00",
        "meta_object_name": "TIANMU-1 14",
        "meta_object_id": "2023-205D",
        "meta_epoch": "2025-12-22T13:41:32.919360",
        "meta_mean_motion": 15.24622975,
        "meta_eccentricity": 0.00071533,
        "meta_inclination": 97.3541,
        "meta_ra_of_asc_node": 15.3679,
        "meta_arg_of_pericenter": 230.014,
        "meta_mean_anomaly": 130.047,
        "meta_ephemeris_type": 0,
        "meta_classification_type": "U",
        "meta_norad_cat_id": 58648,
        "meta_element_set_no": 999,
        "meta_rev_at_epoch": 11057,
        "meta_bstar": 0.00024939957,
        "meta_mean_motion_dot": 6.087e-05,
        "meta_mean_motion_ddot": 0,
        "tle_line1": "1 58648U 23205D   25356.57051990  .00006087  00000+0  24940-3 0  9992",
        "tle_line2": "2 58648  97.3541  15.3679 0007153 230.0140 130.0470 15.24622975110571"
      },
      "geometry": {
        "type": "Point",
        "coordinates": [
          123.25340645127893,
          -82.28722142317594
        ]
      }
    },
    {
      "type": "Feature",
      "properties": {
        "norad_id": 58660,
        "name": "TIANMU-1 19",
        "group": "weather",
        "lat": -72.14379786498915,
        "lon": 131.8953915939323,
        "alt_km": 488.33561101356645,
        "timestamp": "2025-12-22T22:44:20.594367+00:00",
        "meta_object_name": "TIANMU-1 19",
        "meta_object_id": "2023-208A",
        "meta_epoch": "2025-12-22T13:37:52.970880",
        "meta_mean_motion": 15.2801773,
        "meta_eccentricity": 0.00046354,
        "meta_inclination": 97.4394,
        "meta_ra_of_asc_node": 107.5868,
        "meta_arg_of_pericenter": 210.3757,
        "meta_mean_anomaly": 149.7215,
        "meta_ephemeris_type": 0,
        "meta_classification_type": "U",
        "meta_norad_cat_id": 58660,
        "meta_element_set_no": 999,
        "meta_rev_at_epoch": 11032,
        "meta_bstar": 0.00034331582,
        "meta_mean_motion_dot": 9.313e-05,
        "meta_mean_motion_ddot": 0,
        "tle_line1": "1 58660U 23208A   25356.56797420  .00009313  00000+0  34332-3 0  9994",
        "tle_line2": "2 58660  97.4394 107.5868 0004635 210.3757 149.7215 15.28017730110321"
      },
      "geometry": {
        "type": "Point",
        "coordinates": [
          131.8953915939323,
          -72.14379786498915
        ]
      }
    },
    {
      "type": "Feature",
      "properties": {
        "norad_id": 58661,
        "name": "TIANMU-1 20",
        "group": "weather",
        "lat": 43.62328440606208,
        "lon": 101.27526817166911,
        "alt_km": 479.15059471410495,
        "timestamp": "2025-12-22T22:44:20.594377+00:00",
        "meta_object_name": "TIANMU-1 20",
        "meta_object_id": "2023-208B",
        "meta_epoch": "2025-12-22T14:41:39.968160",
        "meta_mean_motion": 15.29208862,
        "meta_eccentricity": 0.00066777,
        "meta_inclination": 97.4333,
        "meta_ra_of_asc_node": 108.0883,
        "meta_arg_of_pericenter": 224.7148,
        "meta_mean_anomaly": 135.3555,
        "meta_ephemeris_type": 0,
        "meta_classification_type": "U",
        "meta_norad_cat_id": 58661,
        "meta_element_set_no": 999,
        "meta_rev_at_epoch": 11040,
        "meta_bstar": 0.00034211396,
        "meta_mean_motion_dot": 9.629e-05,
        "meta_mean_motion_ddot": 0,
        "tle_line1": "1 58661U 23208B   25356.61226815  .00009629  00000+0  34211-3 0  9992",
        "tle_line2": "2 58661  97.4333 108.0883 0006677 224.7148 135.3555 15.29208862110405"
      },
      "geometry": {
        "type": "Point",
        "coordinates": [
          101.27526817166911,
          43.62328440606208
        ]
      }
    },
    {
      "type": "Feature",
      "properties": {
        "norad_id": 58662,
        "name": "TIANMU-1 21",
        "group": "weather",
        "lat": 38.007010788824786,
        "lon": -63.76242954201533,
        "alt_km": 466.8201174491078,
        "timestamp": "2025-12-22T22:44:20.594387+00:00",
        "meta_object_name": "TIANMU-1 21",
        "meta_object_id": "2023-208C",
        "meta_epoch": "2025-12-22T14:17:00.725856",
        "meta_mean_motion": 15.31749298,
        "meta_eccentricity": 0.00063247,
        "meta_inclination": 97.4381,
        "meta_ra_of_asc_node": 110.024,
        "meta_arg_of_pericenter": 219.0424,
        "meta_mean_anomaly": 141.0362,
        "meta_ephemeris_type": 0,
        "meta_classification_type": "U",
        "meta_norad_cat_id": 58662,
        "meta_element_set_no": 999,
        "meta_rev_at_epoch": 11050,
        "meta_bstar": 0.00038380363,
        "meta_mean_motion_dot": 0.00011699,
        "meta_mean_motion_ddot": 0,
        "tle_line1": "1 58662U 23208C   25356.59514729  .00011699  00000+0  38380-3 0  9995",
        "tle_line2": "2 58662  97.4381 110.0240 0006324 219.0424 141.0362 15.31749298110509"
      },
      "geometry": {
        "type": "Point",
        "coordinates": [
          -63.76242954201533,
          38.007010788824786
        ]
      }
    },
    {
      "type": "Feature",
      "properties": {
        "norad_id": 58663,
        "name": "TIANMU-1 22",
        "group": "weather",
        "lat": -78.9262539666197,
        "lon": 149.9010178410876,
        "alt_km": 488.44189951722,
        "timestamp": "2025-12-22T22:44:20.594397+00:00",
        "meta_object_name": "TIANMU-1 22",
        "meta_object_id": "2023-208D",
        "meta_epoch": "2025-12-22T13:39:53.887680",
        "meta_mean_motion": 15.27760012,
        "meta_eccentricity": 0.00028595,
        "meta_inclination": 97.4388,
        "meta_ra_of_asc_node": 107.6427,
        "meta_arg_of_pericenter": 235.3713,
        "meta_mean_anomaly": 124.7256,
        "meta_ephemeris_type": 0,
        "meta_classification_type": "U",
        "meta_norad_cat_id": 58663,
        "meta_element_set_no": 999,
        "meta_rev_at_epoch": 11033,
        "meta_bstar": 0.00031999429,
        "meta_mean_motion_dot": 8.605e-05,
        "meta_mean_motion_ddot": 0,
        "tle_line1": "1 58663U 23208D   25356.56937370  .00008605  00000+0  31999-3 0  9996",
        "tle_line2": "2 58663  97.4388 107.6427 0002859 235.3713 124.7256 15.27760012110330"
      },
      "geometry": {
        "type": "Point",
        "coordinates": [
          149.9010178410876,
          -78.9262539666197
        ]
      }
    },
    {
      "type": "Feature",
      "properties": {
        "norad_id": 58700,
        "name": "TIANMU-1 15",
        "group": "weather",
        "lat": -68.75038293109777,
        "lon": -161.92331780849042,
        "alt_km": 496.46993190191006,
        "timestamp": "2025-12-22T22:44:20.594409+00:00",
        "meta_object_name": "TIANMU-1 15",
        "meta_object_id": "2024-004A",
        "meta_epoch": "2025-12-22T15:10:10.270848",
        "meta_mean_motion": 15.24529896,
        "meta_eccentricity": 0.00059893,
        "meta_inclination": 97.4623,
        "meta_ra_of_asc_node": 178.0644,
        "meta_arg_of_pericenter": 247.9785,
        "meta_mean_anomaly": 112.0816,
        "meta_ephemeris_type": 0,
        "meta_classification_type": "U",
        "meta_norad_cat_id": 58700,
        "meta_element_set_no": 999,
        "meta_rev_at_epoch": 10885,
        "meta_bstar": 0.00028297747,
        "meta_mean_motion_dot": 6.894e-05,
        "meta_mean_motion_ddot": 0,
        "tle_line1": "1 58700U 24004A   25356.63206332  .00006894  00000+0  28298-3 0  9994",
        "tle_line2": "2 58700  97.4623 178.0644 0005989 247.9785 112.0816 15.24529896108858"
      },
      "geometry": {
        "type": "Point",
        "coordinates": [
          -161.92331780849042,
          -68.75038293109777
        ]
      }
    }
  ]
}